#dP2021 11 20 18  0  0.00000000      96 __u+U ITR00 EXT  IAC
## 2184 583200.00000000   900.00000000 59538 0.7500000000000
+  112   C06C07C08C09C10C11C12C13C14C16C19C20C21C22C23C24C25
+        C26C27C28C29C30C32C33C34C35C36C37C38C39C40C41C42C43
+        C44C45C46E01E02E03E04E05E07E08E09E11E12E13E14E15E18
+        E19E21E24E25E27E30E31E33E36G01G02G03G04G05G06G07G08
+        G09G10G12G13G14G15G16G17G18G19G20G21G22G23G24G25G26
+        G27G28G29G30G31G32R01R02R03R04R05R07R08R09R11R12R13
+        R14R15R16R17R18R19R20R21R22R24  0  0  0  0  0  0  0
++        10  9 10 10  9  7  8  9 10  9  8  7  9  9  6  8  8
++        10  8  8  8  8  9  9  7  7  6  8  9 10 10  8  9  9
++         9  9  7  9  8  7  8  7  7  7  8  8  8  8  7  7  7
++         8  8  9  8  9  9 10  8  9  7  8  7  8  8  7  8  6
++         8  8  8  8  9  7  8  7  7  8  7  8  8  8  7  7  8
++         8  8  7  7  7  8  7  9  9  8  9  7  8  9  8  7  8
++        10  8 10  7  8  8  9 10  8 10  0  0  0  0  0  0  0
%c M  cc GPS ccc cccc cccc cccc cccc ccccc ccccc ccccc ccccc
%c cc cc ccc ccc cccc cccc cccc cccc ccccc ccccc ccccc ccccc
%f  0.0000000  0.000000000  0.00000000000  0.000000000000000
%f  0.0000000  0.000000000  0.00000000000  0.000000000000000
%i    0    0    0    0      0      0      0      0         0
%i    0    0    0    0      0      0      0      0         0
/* IAC                                ULTRA-RAPID PREDICTION
/* S/V CLOCKS ARE ALIGNED TO GNSS TIME                      
/* G:C1WC2W R:C1PC2P E:C1XC5X C:C2IC6I J:C1CC2S             
/* PCV:IGS14_2163 OL/AL:FES2004  NONE     YN ORB:CoN CLK:CoN
*  2021 11 21 11 15  0.00000000
PC06 -16642.290688  36219.889294  13457.573411    519.627003
PC07  -2986.629072  35326.532022  22929.448563    212.334046
PC08  -8849.993038  19890.039825 -36120.195821   -750.683758
PC09 -11224.670035  35021.742699  20506.666389   -284.905670
PC10   4230.728217  38580.234841  17291.389164     13.295303
PC11 -12902.739571  -8483.245838  23316.769960    703.491915
PC12   2678.165514 -21285.731541  17875.431384    721.526633
PC13  -2551.368262  22246.396210 -35609.090779    482.091401
PC14 -16319.544093 -18901.486120 -12391.446033    526.472570
PC16 -20183.921147  35800.058356   8981.300716   -714.127617
PC19  17810.044456   9678.966495  19200.330948    932.500913
PC20  13022.608141  24115.189466   5322.693559   -791.019917
PC21    -73.176379 -24904.025122  12583.361059   -938.633610
PC22  12477.717962 -10873.865601  22457.196624   -971.707300
PC23 -22737.643982   6754.933752  14713.806121   -964.455752
PC24 -15123.959593 -15465.569950 -17655.623497   -958.933753
PC25 -27431.267185  -5024.486189  -1345.325014   -821.448039
PC26   3759.445361 -15828.168044 -22681.296821    818.723111
PC27 -10455.502378  23592.126044 -10623.557553    632.979225
PC28 -20901.024955  17153.788816   6928.230155     -0.103884
PC29  19000.273573  -1276.521139 -20400.371173    477.265774
PC30   6142.207616  16472.106848 -21669.098158    486.836521
PC32    222.333570  24887.811543 -12618.229622   -960.426961
PC33 -17878.797092  -9658.644386 -19125.093273   -969.563331
PC34  -6876.705436 -15863.836335  21902.532273   -531.973880
PC35  20440.223760 -17533.958690  -7376.298274     10.812036
PC36  27198.225873   5964.212452   1800.842958   -809.749205
PC37  -5379.498034  15470.502458  22611.329044   -895.418556
PC38 -18974.723788  19622.457340 -32173.893367    191.074294
PC39 -21766.713084  35875.515416   3133.296291     34.096830
PC40  -6828.069493  31236.959244  27569.567932    219.691719
PC41 -12662.755363  10536.951799 -22482.463248   -915.678993
PC42 -12559.049565 -24516.644463  -4396.755653   -940.959413
PC43 -18815.401091    507.017297  20593.316842   -959.319767
PC44   9790.412527 -24003.341603  10364.828419    473.018102
PC45  22555.510410  -6835.360227 -14917.548460    606.664345
PC46  16300.885689  15006.686324  16943.824697    -19.938938
PE01 -22927.452897  -2032.800647  18623.187436   -521.736275
PE02  22841.659873   1884.666665 -18716.337604    261.760507
PE03  17271.332373  -8333.868058  22535.188076   -498.278098
PE04 -10780.547930  25672.693375 -10044.028514   -904.315875
PE05  13740.815918  14215.267260  22022.606689   -232.296214
PE07  -2256.759083 -28200.516190  -8698.307630   -609.396645
PE08  10388.022299 -25949.303052   9720.192834   5901.462701
PE09   2450.519858  28126.041913   8908.598315   5456.160959
PE11   1586.443913  16580.019372 -24472.337832   5042.285662
PE12 -19204.192269  17695.710405 -13926.221286   4899.087554
PE13   -955.765097 -16705.105680  24424.568904    423.920065
PE14 -16569.805607  17655.987353  11398.178194  -1647.884022
PE15  19227.193882 -17703.012278  13901.809570    779.707426
PE18  20928.431698  -6523.697033 -20718.519815  -1811.556850
PE19 -17290.598918   5548.943207 -23377.788542    433.037615
PE21 -24340.944390 -16608.121357   2859.196860   -700.823457
PE24  10633.298432  22397.210458  16142.707565  -1238.165487
PE25  24254.712275  16754.375707  -2610.330644   -554.298439
PE27 -11791.747079 -22414.107774 -15325.936188   -169.756184
PE30   8824.839909 -14198.785492 -24431.708092    -47.786280
PE31  -7620.565116  14987.146177  24373.110927   -488.352913
PE33 -28021.269852   8250.854746   4801.680074   -462.303634
PE36  20479.388803   5891.508911 -20535.424005   -293.164546
PG01   3835.949569  14283.854718 -22339.793642    504.842685
PG02  17926.995873 -15200.182594  13120.313258   -642.873362
PG03  10649.895960  21979.624148 -10667.259947    -19.177643
PG04   1328.582110  23347.325563  12523.660609   -201.318753
PG05   2650.181626 -17068.107772  19968.704723    -61.809982
PG06  25988.012192  -5599.065594   -589.950091    123.224726
PG07  19596.117000   7821.369016  16795.123519    281.023622
PG08  -5949.261610  25643.424520  -1746.039283    -45.040237
PG09  10278.200940  14661.535962  19533.819808   -361.532222
PG10 -20973.636964  -7942.044214 -14330.484193   -251.042215
PG12  -7655.385427 -22554.294380 -12147.091057   -129.528551
PG13  13193.933064 -22600.362173   3870.099487    217.869222
PG14  20724.348903   8453.911711 -14344.905796    -42.157690
PG15   2502.284453 -26162.898684  -2660.608764   -104.864146
PG16  -7054.206752  14213.350465  20963.167839   -427.838074
PG17  15125.461984    435.177081 -21392.377409    536.766256
PG18 -20147.452498  -6877.215174  15938.714121    292.182763
PG19  17145.080932  -8296.596304 -18700.553155     82.118047
PG20  12208.255028 -10127.997046  21260.737903    518.009901
PG21  -5659.492597  16133.030037 -19480.824015    151.639314
PG22   4622.338093  20119.632283 -16654.429881   -459.627460
PG23 -20518.576024 -16360.083557  -4409.705406     30.459228
PG24    301.826414 -16421.910361 -21093.677306    269.136918
PG25 -16788.639426 -20616.202408  -2847.892861    243.980064
PG26 -17454.203332   3238.300122  19774.352557    157.503396
PG27 -12258.516724  21865.560179   7992.522174   -221.844124
PG28  17969.386904   2123.319154 -18829.516476    458.503074
PG29  -5807.009635 -18500.119952  18079.625190   -443.594132
PG30  25446.677901    659.462990   8063.966093   -493.177646
PG31 -25954.693974   6547.319485   1557.900028   -151.252007
PG32 -16227.941535   4102.005939 -20465.170342    -24.779661
PR01  -6759.470309  14742.725065 -19697.893952     88.422672
PR02   2873.063022  25150.907333  -2803.803794    500.760199
PR03  10049.585215  18768.800835  14039.509120     46.842664
PR04  11213.659347   2081.347869  22834.161930    115.260170
PR05   6356.819758 -15817.942068  18989.496114     82.849007
PR07 -10170.142935 -18378.911843 -14480.846039    -39.809712
PR08 -11309.100392  -2018.895388 -22729.911741    -62.139293
PR09  -5569.096293 -12987.120521 -21201.825656     24.726974
PR11 -23896.737063  -4419.892732   7745.760761     48.838699
PR12 -12963.255145   6057.753001  21149.441081    280.226908
PR13   4661.897191  12589.560051  21674.736676    -63.820708
PR14  20622.591702  12001.970503   9048.278448     71.252152
PR15  23706.414460   4345.806777  -8329.532796    100.065150
PR16  11528.790101  -7233.495938 -21564.812425    -25.389999
PR17   8594.656779   6504.091440 -23102.327864    476.837085
PR18  19172.542732  -6714.067161 -15436.470122     97.936239
PR19  20324.623131 -15391.044910   -630.761158   -167.811483
PR20   8298.604636 -16354.094949  17759.434789    -59.751257
PR21  -9704.078103  -5406.844321  22970.265162   -256.280916
PR22 -19457.463005   7248.880374  14744.590909   -146.572465
PR24  -7144.785927  16576.058650 -18011.650040     67.884414
EOF
